{
  "type": "FeatureCollection",
  "features": [
    {
      "type": "Feature",
      "properties": {
        "norad_id": 37928,
        "name": "FENGYUN 1C DEB",
        "group": "fengyun-1c-debris",
        "lat": 33.77858687212648,
        "lon": 41.19362037123409,
        "alt_km": 770.4601025419743,
        "timestamp": "2025-12-06T18:50:10.458247+00:00",
        "meta_object_name": "FENGYUN 1C DEB",
        "meta_object_id": "1999-025EPD",
        "meta_epoch": "2025-12-05T22:06:55.639584",
        "meta_mean_motion": 14.37064476,
        "meta_eccentricity": 0.0073466,
        "meta_inclination": 98.9156,
        "meta_ra_of_asc_node": 214.2722,
        "meta_arg_of_pericenter": 52.9241,
        "meta_mean_anomaly": 307.8631,
        "meta_ephemeris_type": 0,
        "meta_classification_type": "U",
        "meta_norad_cat_id": 37928,
        "meta_element_set_no": 999,
        "meta_rev_at_epoch": 81094,
        "meta_bstar": 0.0011316154,
        "meta_mean_motion_dot": 3.419e-05,
        "meta_mean_motion_ddot": 0,
        "tle_line1": "1 37928U 99025EPD 25339.92147731  .00003419  00000+0  11316-2 0  9990",
        "tle_line2": "2 37928  98.9156 214.2722 0073466  52.9241 307.8631 14.37064476810940"
      },
      "geometry": {
        "type": "Point",
        "coordinates": [
          41.19362037123409,
          33.77858687212648
        ]
      }
    },
    {
      "type": "Feature",
      "properties": {
        "norad_id": 38116,
        "name": "FENGYUN 1C DEB",
        "group": "fengyun-1c-debris",
        "lat": -54.39531548586816,
        "lon": -172.7284942914878,
        "alt_km": 825.7534062469449,
        "timestamp": "2025-12-06T18:50:10.458257+00:00",
        "meta_object_name": "FENGYUN 1C DEB",
        "meta_object_id": "1999-025EPM",
        "meta_epoch": "2025-12-05T09:36:53.083296",
        "meta_mean_motion": 14.16993795,
        "meta_eccentricity": 0.00722301,
        "meta_inclination": 98.7134,
        "meta_ra_of_asc_node": 18.2823,
        "meta_arg_of_pericenter": 167.5891,
        "meta_mean_anomaly": 209.6542,
        "meta_ephemeris_type": 0,
        "meta_classification_type": "U",
        "meta_norad_cat_id": 38116,
        "meta_element_set_no": 999,
        "meta_rev_at_epoch": 64381,
        "meta_bstar": 0.00082774825,
        "meta_mean_motion_dot": 1.663e-05,
        "meta_mean_motion_ddot": 0,
        "tle_line1": "1 38116U 99025EPM 25339.40061439  .00001663  00000+0  82775-3 0  9990",
        "tle_line2": "2 38116  98.7134  18.2823 0072230 167.5891 209.6542 14.16993795643812"
      },
      "geometry": {
        "type": "Point",
        "coordinates": [
          -172.7284942914878,
          -54.39531548586816
        ]
      }
    },
    {
      "type": "Feature",
      "properties": {
        "norad_id": 38121,
        "name": "FENGYUN 1C DEB",
        "group": "fengyun-1c-debris",
        "lat": 41.66200674640434,
        "lon": 123.8463912228185,
        "alt_km": 845.15270890785,
        "timestamp": "2025-12-06T18:50:10.458267+00:00",
        "meta_object_name": "FENGYUN 1C DEB",
        "meta_object_id": "1999-025EPS",
        "meta_epoch": "2025-11-29T04:12:17.244576",
        "meta_mean_motion": 14.2162433,
        "meta_eccentricity": 0.02065546,
        "meta_inclination": 99.115,
        "meta_ra_of_asc_node": 124.1974,
        "meta_arg_of_pericenter": 166.4816,
        "meta_mean_anomaly": 194.2011,
        "meta_ephemeris_type": 0,
        "meta_classification_type": "U",
        "meta_norad_cat_id": 38121,
        "meta_element_set_no": 999,
        "meta_rev_at_epoch": 83727,
        "meta_bstar": 0.001349076,
        "meta_mean_motion_dot": 3.628e-05,
        "meta_mean_motion_ddot": 0,
        "tle_line1": "1 38121U 99025EPS 25333.17519959  .00003628  00000+0  13491-2 0  9990",
        "tle_line2": "2 38121  99.1150 124.1974 0206554 166.4816 194.2011 14.21624330837275"
      },
      "geometry": {
        "type": "Point",
        "coordinates": [
          123.8463912228185,
          41.66200674640434
        ]
      }
    },
    {
      "type": "Feature",
      "properties": {
        "norad_id": 38122,
        "name": "FENGYUN 1C DEB",
        "group": "fengyun-1c-debris",
        "lat": -74.07530676191016,
        "lon": 132.53005583962772,
        "alt_km": 729.405280852694,
        "timestamp": "2025-12-06T18:50:10.458277+00:00",
        "meta_object_name": "FENGYUN 1C DEB",
        "meta_object_id": "1999-025EPT",
        "meta_epoch": "2025-12-06T06:00:42.608160",
        "meta_mean_motion": 14.42615043,
        "meta_eccentricity": 0.02274068,
        "meta_inclination": 98.3137,
        "meta_ra_of_asc_node": 342.838,
        "meta_arg_of_pericenter": 176.5296,
        "meta_mean_anomaly": 183.7538,
        "meta_ephemeris_type": 0,
        "meta_classification_type": "U",
        "meta_norad_cat_id": 38122,
        "meta_element_set_no": 999,
        "meta_rev_at_epoch": 67645,
        "meta_bstar": 0.00078491314,
        "meta_mean_motion_dot": 3.513e-05,
        "meta_mean_motion_ddot": 0,
        "tle_line1": "1 38122U 99025EPT 25340.25049315  .00003513  00000+0  78491-3 0  9997",
        "tle_line2": "2 38122  98.3137 342.8380 0227406 176.5296 183.7538 14.42615043676457"
      },
      "geometry": {
        "type": "Point",
        "coordinates": [
          132.53005583962772,
          -74.07530676191016
        ]
      }
    },
    {
      "type": "Feature",
      "properties": {
        "norad_id": 38124,
        "name": "FENGYUN 1C DEB",
        "group": "fengyun-1c-debris",
        "lat": -19.869668206214314,
        "lon": 111.86208429490921,
        "alt_km": 1243.9184909862352,
        "timestamp": "2025-12-06T18:50:10.458287+00:00",
        "meta_object_name": "FENGYUN 1C DEB",
        "meta_object_id": "1999-025EPV",
        "meta_epoch": "2025-11-17T02:51:17.993664",
        "meta_mean_motion": 13.40908773,
        "meta_eccentricity": 0.03570409,
        "meta_inclination": 97.805,
        "meta_ra_of_asc_node": 279.4801,
        "meta_arg_of_pericenter": 12.4947,
        "meta_mean_anomaly": 348.4759,
        "meta_ephemeris_type": 0,
        "meta_classification_type": "U",
        "meta_norad_cat_id": 38124,
        "meta_element_set_no": 999,
        "meta_rev_at_epoch": 54238,
        "meta_bstar": 0.00079426358,
        "meta_mean_motion_dot": 6.08e-06,
        "meta_mean_motion_ddot": 0,
        "tle_line1": "1 38124U 99025EPV 25321.11895826  .00000608  00000+0  79426-3 0  9990",
        "tle_line2": "2 38124  97.8050 279.4801 0357040  12.4947 348.4759 13.40908773542380"
      },
      "geometry": {
        "type": "Point",
        "coordinates": [
          111.86208429490921,
          -19.869668206214314
        ]
      }
    },
    {
      "type": "Feature",
      "properties": {
        "norad_id": 38130,
        "name": "FENGYUN 1C DEB",
        "group": "fengyun-1c-debris",
        "lat": -23.98752218928727,
        "lon": -150.81396850101754,
        "alt_km": 855.1428286250293,
        "timestamp": "2025-12-06T18:50:10.458297+00:00",
        "meta_object_name": "FENGYUN 1C DEB",
        "meta_object_id": "1999-025EQB",
        "meta_epoch": "2025-11-28T09:19:02.490528",
        "meta_mean_motion": 13.7720595,
        "meta_eccentricity": 0.02085156,
        "meta_inclination": 98.6035,
        "meta_ra_of_asc_node": 25.4413,
        "meta_arg_of_pericenter": 263.5047,
        "meta_mean_anomaly": 94.2329,
        "meta_ephemeris_type": 0,
        "meta_classification_type": "U",
        "meta_norad_cat_id": 38130,
        "meta_element_set_no": 999,
        "meta_rev_at_epoch": 69085,
        "meta_bstar": 0.0016964005,
        "meta_mean_motion_dot": 1.933e-05,
        "meta_mean_motion_ddot": 0,
        "tle_line1": "1 38130U 99025EQB 25332.38822327  .00001933  00000+0  16964-2 0  9993",
        "tle_line2": "2 38130  98.6035  25.4413 0208515 263.5047  94.2329 13.77205950690851"
      },
      "geometry": {
        "type": "Point",
        "coordinates": [
          -150.81396850101754,
          -23.98752218928727
        ]
      }
    },
    {
      "type": "Feature",
      "properties": {
        "norad_id": 38135,
        "name": "FENGYUN 1C DEB",
        "group": "fengyun-1c-debris",
        "lat": -81.32334246404105,
        "lon": 130.49254055408903,
        "alt_km": 975.4576194386573,
        "timestamp": "2025-12-06T18:50:10.458307+00:00",
        "meta_object_name": "FENGYUN 1C DEB",
        "meta_object_id": "1999-025EQG",
        "meta_epoch": "2025-12-04T09:59:10.811040",
        "meta_mean_motion": 14.2524882,
        "meta_eccentricity": 0.0223375,
        "meta_inclination": 98.6606,
        "meta_ra_of_asc_node": 35.2993,
        "meta_arg_of_pericenter": 95.5388,
        "meta_mean_anomaly": 267.1312,
        "meta_ephemeris_type": 0,
        "meta_classification_type": "U",
        "meta_norad_cat_id": 38135,
        "meta_element_set_no": 999,
        "meta_rev_at_epoch": 60922,
        "meta_bstar": 0.00083169,
        "meta_mean_motion_dot": 2.494e-05,
        "meta_mean_motion_ddot": 0,
        "tle_line1": "1 38135U 99025EQG 25338.41609735  .00002494  00000+0  83169-3 0  9999",
        "tle_line2": "2 38135  98.6606  35.2993 0223375  95.5388 267.1312 14.25248820609225"
      },
      "geometry": {
        "type": "Point",
        "coordinates": [
          130.49254055408903,
          -81.32334246404105
        ]
      }
    }
  ]
}